[{"OBJECT_NAME":"STARLINK-11462 [DTC]","OBJECT_ID":"2024-249D","EPOCH":"2026-03-09T07:52:54.638688","MEAN_MOTION":15.70830095,"ECCENTRICITY":0.00050088,"INCLINATION":42.9983,"RA_OF_ASC_NODE":169.844,"ARG_OF_PERICENTER":292.4524,"MEAN_ANOMALY":67.5813,"EPHEMERIS_TYPE":0,"CLASSIFICATION_TYPE":"U","NORAD_CAT_ID":62412,"ELEMENT_SET_NO":999,"REV_AT_EPOCH":6942,"BSTAR":0.0023328824,"MEAN_MOTION_DOT":0.0031031,"MEAN_MOTION_DDOT":0},{"OBJECT_NAME":"CZ-2F DEB","OBJECT_ID":"2026-024E","EPOCH":"2026-03-09T06:46:05.636352","MEAN_MOTION":15.25893319,"ECCENTRICITY":0.0230643,"INCLINATION":50.3206,"RA_OF_ASC_NODE":20.6889,"ARG_OF_PERICENTER":278.3013,"MEAN_ANOMALY":79.1857,"EPHEMERIS_TYPE":0,"CLASSIFICATION_TYPE":"U","NORAD_CAT_ID":67718,"ELEMENT_SET_NO":999,"REV_AT_EPOCH":457,"BSTAR":0.0044193489,"MEAN_MOTION_DOT":0.00260029,"MEAN_MOTION_DDOT":0}]
